STARLINK-1642           
1 46154U 20057AP  20253.50001157 -.00004420  00000-0 -28311-4 0  9996
2 46154  52.9974 331.4883 0000819  47.3812 306.8853 15.72221371  4133
STARLINK-1667           
1 46155U 20057AQ  20253.25001157  .00022563  00000-0  21929-3 0  9992
2 46155  52.9990 333.5630 0001149  62.6904 274.4793 15.66242588  1770
STARLINK-1545           
1 46156U 20057AR  20253.50001157 -.00003852  00000-0 -31299-4 0  9995
2 46156  52.9997 332.4080 0001489  57.3913 217.3226 15.66248654  4122
STARLINK-1587           
1 46157U 20057AS  20253.50001157 -.00003627  00000-0 -29138-4 0  9995
2 46157  52.9993 332.3375 0001329  38.8440 269.8273 15.66267678  4128
STARLINK-1589           
1 46158U 20057AT  20253.25001157  .00137001  00000-0  15015-2 0  9997
2 46158  53.0013 333.9926 0001517  53.1982  90.6490 15.62328449  1772
STARLINK-1595           
1 46159U 20057AU  20253.25001157 -.01081724  00000-0 -13840-1 0  9994
2 46159  53.0028 334.0188 0001078   6.4343 122.7212 15.61133711  1779
STARLINK-1598           
1 46160U 20057AV  20253.25001157  .00022184  00000-0  21562-3 0  9990
2 46160  52.9997 333.6056 0000899  32.3480 287.7360 15.66253278  1775
STARLINK-1600           
1 46161U 20057AW  20253.25001157  .00023885  00000-0  23181-3 0  9999
2 46161  52.9977 333.6245 0001497  74.0433 233.2309 15.66240563  1828
STARLINK-1603           
1 46162U 20057AX  20253.25001157  .00022312  00000-0  21680-3 0  9996
2 46162  52.9996 333.5938 0000945  34.8007 288.2430 15.66255955  1776
STARLINK-1610           
1 46163U 20057AY  20253.25001157  .00022615  00000-0  21939-3 0  9990
2 46163  52.9997 333.5886 0001373  71.8162 256.5215 15.66287859  1776
STARLINK-1612           
1 46164U 20057AZ  20253.25001157  .00022401  00000-0  21763-3 0  9999
2 46164  52.9993 333.5792 0001262 328.7259   2.0245 15.66258015  1776
STARLINK-1613           
1 46165U 20057BA  20253.50001157 -.00105492  00000-0 -11578-2 0  9994
2 46165  53.0013 332.7499 0001424  57.3139  50.4330 15.62827921  4127
STARLINK-1615           
1 46166U 20057BB  20253.25001157 -.01097275  00000-0 -14512-1 0  9997
2 46166  52.9978 333.9961 0001520  48.9298  96.7426 15.60311524  1820
STARLINK-1626           
1 46167U 20057BC  20253.25001157  .00027640  00000-0  30662-3 0  9990
2 46167  52.9994 333.9637 0001608 314.5553 189.7265 15.62756437  1778
